NORAD_CAT_ID,OBJECT_NAME,OBJECT_TYPE,EPOCH,MEAN_MOTION,ECCENTRICITY,INCLINATION,RA_OF_ASC_NODE,ARG_OF_PERICENTER,MEAN_ANOMALY,BSTAR,MEAN_MOTION_DOT,MEAN_MOTION_DDOT,TLE_LINE0,TLE_LINE1,TLE_LINE2,SEMIMAJOR_AXIS,PERIOD,APOGEE,PERIGEE,DECAYED
56776.0,STARLINK-6274,PAYLOAD,2023-10-10 10:52:29,15.69918224,0.0003896,69.9978,41.6787,269.0036,91.0713,-2.1007e-05,-2.738e-05,0.0,0 STARLINK-6274,1 56776U 23078K   23283.45311384 -.00002738  00000-0 -21007-4 0  9994,2 56776  69.9978  41.6787 0003896 269.0036  91.0713 15.69918224 21052,6737.268,91.725,361.758,356.508,0.0
56776.0,STARLINK-6274,PAYLOAD,2023-10-10 20:02:58,15.69936443,0.0004004,69.998,40.6039,260.3444,99.7299,1.7309e-05,1.87e-05,0.0,0 STARLINK-6274,1 56776U 23078K   23283.83539452  .00001870  00000-0  17309-4 0  9998,2 56776  69.9980  40.6039 0004004 260.3444  99.7299 15.69936443 20857,6737.216,91.723,361.778,356.383,0.0
56776.0,STARLINK-6274,PAYLOAD,2023-10-11 09:48:46,15.69905524,0.0003121,69.9997,38.9911,253.0269,107.0584,-7.8536e-06,-1.156e-05,0.0,0 STARLINK-6274,1 56776U 23078K   23284.40887043 -.00001156  00000-0 -78536-5 0  9993,2 56776  69.9997  38.9911 0003121 253.0269 107.0584 15.69905524 21203,6737.304,91.725,361.272,357.067,0.0
56776.0,STARLINK-6274,PAYLOAD,2023-10-11 14:24:00,15.69931657,0.0002798,69.9992,38.4538,252.4061,107.6829,2.0298e-05,2.229e-05,0.0,0 STARLINK-6274,1 56776U 23078K   23284.60000050  .00002229  00000-0  20298-4 0  9991,2 56776  69.9992  38.4538 0002798 252.4061 107.6829 15.69931657 20977,6737.23,91.724,360.98,357.209,0.0
56776.0,STARLINK-6274,PAYLOAD,2023-10-11 17:27:30,15.69925973,0.0003543,69.9991,38.0959,259.7195,100.3601,1.4551e-05,1.537e-05,0.0,0 STARLINK-6274,1 56776U 23078K   23284.72743810  .00001537  00000-0  14551-4 0  9998,2 56776  69.9991  38.0959 0003543 259.7195 100.3601 15.69925973 21250,6737.246,91.724,361.498,356.724,0.0
56776.0,STARLINK-6274,PAYLOAD,2023-10-12 10:16:47,15.69914096,0.0003734,69.9982,36.1246,250.9121,109.1671,1.2069e-05,1.238e-05,0.0,0 STARLINK-6274,1 56776U 23078K   23285.42832777  .00001238  00000-0  12069-4 0  9997,2 56776  69.9982  36.1246 0003734 250.9121 109.1671 15.69914096 21362,6737.28,91.725,361.66,356.629,0.0
56776.0,STARLINK-6274,PAYLOAD,2023-10-12 16:23:47,15.69923964,0.0003485,69.9976,35.4078,252.76,107.3214,3.2015e-05,3.638e-05,0.0,0 STARLINK-6274,1 56776U 23078K   23285.68318620  .00003638  00000-0  32015-4 0  9990,2 56776  69.9976  35.4078 0003485 252.7600 107.3214 15.69923964 21407,6737.252,91.724,361.464,356.769,0.0
56776.0,STARLINK-6274,PAYLOAD,2023-10-12 19:27:17,15.6992199,0.0002896,69.9997,35.0506,261.1217,98.965,3.4419e-05,3.927e-05,0.0,0 STARLINK-6274,1 56776U 23078K   23285.81062336  .00003927  00000-0  34419-4 0  9996,2 56776  69.9997  35.0506 0002896 261.1217  98.9650 15.69921990 21164,6737.257,91.724,361.073,357.171,0.0
56776.0,STARLINK-6274,PAYLOAD,2023-10-13 10:44:49,15.69909451,0.0002,69.9999,33.2581,244.3552,115.7437,2.5756e-05,2.884e-05,0.0,0 STARLINK-6274,1 56776U 23078K   23286.44779864  .00002884  00000-0  25756-4 0  9992,2 56776  69.9999  33.2581 0002000 244.3552 115.7437 15.69909451 21520,6737.293,91.725,360.506,357.811,0.0
56776.0,STARLINK-6274,PAYLOAD,2023-10-13 16:51:49,15.69920179,0.0002439,69.9999,32.5414,257.2701,102.8222,2.5669e-05,2.874e-05,0.0,0 STARLINK-6274,1 56776U 23078K   23286.70265991  .00002874  00000-0  25669-4 0  9994,2 56776  69.9999  32.5414 0002439 257.2701 102.8222 15.69920179 21565,6737.262,91.724,360.771,357.484,0.0
56776.0,STARLINK-6274,PAYLOAD,2023-10-14 09:41:06,15.6991997,0.000291,69.9988,30.5709,259.5108,100.576,-1.7798e-06,-4.26e-06,0.0,0 STARLINK-6274,1 56776U 23078K   23287.40354783 -.00000426  00000-0 -17798-5 0  9998,2 56776  69.9988  30.5709 0002910 259.5108 100.5760 15.69919970 21411,6737.263,91.724,361.089,357.167,0.0
56776.0,STARLINK-6274,PAYLOAD,2023-10-14 15:48:07,15.69911968,0.0003116,69.9989,29.8551,267.9742,92.1097,-1.4941e-05,-2.008e-05,0.0,0 STARLINK-6274,1 56776U 23078K   23287.65842355 -.00002008  00000-0 -14941-4 0  9996,2 56776  69.9989  29.8551 0003116 267.9742  92.1097 15.69911968 21715,6737.286,91.725,361.25,357.052,0.0
56776.0,STARLINK-6274,PAYLOAD,2023-10-15 10:09:08,15.69927744,0.0003486,69.9983,27.7065,260.9386,99.1416,1.2537e-06,-6.2e-07,0.0,0 STARLINK-6274,1 56776U 23078K   23288.42301044 -.00000062  00000-0  12537-5 0  9994,2 56776  69.9983  27.7065 0003486 260.9386  99.1416 15.69927744 21837,6737.241,91.724,361.454,356.757,0.0
56776.0,STARLINK-6274,PAYLOAD,2023-10-15 16:16:08,15.69930699,0.0003348,69.9978,26.9888,261.8281,98.2535,1.3363e-06,-5.2e-07,0.0,0 STARLINK-6274,1 56776U 23078K   23288.67787523 -.00000052  00000-0  13363-5 0  9998,2 56776  69.9978  26.9888 0003348 261.8281  98.2535 15.69930699 21617,6737.232,91.724,361.353,356.842,0.0
56776.0,STARLINK-6274,PAYLOAD,2023-10-16 07:33:39,15.69919155,0.0003225,69.9988,25.1968,272.8582,87.2245,1.9077e-05,2.081e-05,0.0,0 STARLINK-6274,1 56776U 23078K   23289.31504627  .00002081  00000-0  19077-4 0  9992,2 56776  69.9988  25.1968 0003225 272.8582  87.2245 15.69919155 21977,6737.265,91.724,361.303,356.958,0.0
56776.0,STARLINK-6274,PAYLOAD,2023-10-16 09:05:25,15.69908802,0.0004007,69.9984,25.0179,279.482,80.5922,6.9332e-06,6.2e-06,0.0,0 STARLINK-6274,1 56776U 23078K   23289.37877182  .00000620  00000-0  69332-5 0  9994,2 56776  69.9984  25.0179 0004007 279.4820  80.5922 15.69908802 21989,6737.295,91.725,361.86,356.46,0.0
56776.0,STARLINK-6274,PAYLOAD,2023-10-16 16:44:10,15.69921857,0.0003541,69.9989,24.1213,257.3317,102.7483,1.7247e-05,1.861e-05,0.0,0 STARLINK-6274,1 56776U 23078K   23289.69734419  .00001861  00000-0  17247-4 0  9999,2 56776  69.9989  24.1213 0003541 257.3317 102.7483 15.69921857 22032,6737.258,91.724,361.508,356.737,0.0
56776.0,STARLINK-6274,PAYLOAD,2023-10-17 12:36:57,15.69923,0.0003212,69.9972,21.7915,250.4556,109.6293,1.1003e-05,1.11e-05,0.0,0 STARLINK-6274,1 56776U 23078K   23290.52566171  .00001110  00000-0  11003-4 0  9992,2 56776  69.9972  21.7915 0003212 250.4556 109.6293 15.69923000 21902,6737.254,91.724,361.283,356.955,0.0
56776.0,STARLINK-6274,PAYLOAD,2023-10-17 23:19:13,15.69922194,0.0003558,69.9972,20.5394,275.4073,84.6716,1.6146e-05,1.729e-05,0.0,0 STARLINK-6274,1 56776U 23078K   23290.97167928  .00001729  00000-0  16146-4 0  9997,2 56776  69.9972  20.5394 0003558 275.4073  84.6716 15.69922194 22236,6737.257,91.724,361.519,356.724,0.0
56776.0,STARLINK-6274,PAYLOAD,2023-10-18 16:08:29,15.69918672,0.0003491,69.9968,18.5688,266.9722,93.1074,1.0105e-05,1.002e-05,0.0,0 STARLINK-6274,1 56776U 23078K   23291.67256690  .00001002  00000-0  10105-4 0  9993,2 56776  69.9968  18.5688 0003491 266.9722  93.1074 15.69918672 22346,6737.267,91.724,361.484,356.78,0.0
56776.0,STARLINK-6274,PAYLOAD,2023-10-19 08:57:45,15.69925138,0.0003593,69.9956,16.5956,277.569,82.5097,6.1334e-06,5.25e-06,0.0,0 STARLINK-6274,1 56776U 23078K   23292.37344593  .00000525  00000-0  61334-5 0  9991,2 56776  69.9956  16.5956 0003593 277.5690  82.5097 15.69925138 22199,6737.248,91.724,361.534,356.692,0.0
56776.0,STARLINK-6274,PAYLOAD,2023-10-19 22:43:31,15.69926197,0.0004004,69.9969,14.9839,271.474,88.5997,-1.1098e-05,-1.548e-05,0.0,0 STARLINK-6274,1 56776U 23078K   23292.94689778 -.00001548  00000-0 -11098-4 0  9990,2 56776  69.9969  14.9839 0004004 271.4740  88.5997 15.69926197 22542,6737.245,91.724,361.808,356.413,0.0
56776.0,STARLINK-6274,PAYLOAD,2023-10-20 07:54:03,15.69914498,0.0003042,69.9969,13.9109,268.8063,91.2784,-3.3671e-06,-6.17e-06,0.0,0 STARLINK-6274,1 56776U 23078K   23293.32920758 -.00000617  00000-0 -33671-5 0  9997,2 56776  69.9969  13.9109 0003042 268.8063  91.2784 15.69914498 22603,6737.279,91.725,361.193,357.094,0.0
56776.0,STARLINK-6274,PAYLOAD,2023-10-20 15:32:25,15.70201178,0.0004437,69.9969,13.0129,273.8515,86.2173,0.00030434,0.00036974,0.0,0 STARLINK-6274,1 56776U 23078K   23293.64751602  .00036974  00000-0  30434-3 0  9997,2 56776  69.9969  13.0129 0004437 273.8515  86.2173 15.70201178 22650,6736.459,91.708,361.313,355.335,0.0
56776.0,STARLINK-6274,PAYLOAD,2023-10-21 11:25:31,15.70006291,0.0001896,69.9979,10.6854,249.4804,110.6188,-1.5466e-05,-2.077e-05,0.0,0 STARLINK-6274,1 56776U 23078K   23294.47605558 -.00002077  00000-0 -15466-4 0  9995,2 56776  69.9979  10.6854 0001896 249.4804 110.6188 15.70006291 22786,6737.016,91.719,360.158,357.604,0.0
56776.0,STARLINK-6274,PAYLOAD,2023-10-21 14:29:04,15.69932706,0.0002967,69.9971,10.3263,270.1324,89.9532,1.6033e-05,1.716e-05,0.0,0 STARLINK-6274,1 56776U 23078K   23294.60352394  .00001716  00000-0  16033-4 0  9995,2 56776  69.9971  10.3263 0002967 270.1324  89.9532 15.69932706 22549,6737.227,91.724,361.09,357.093,0.0
56776.0,STARLINK-6274,PAYLOAD,2023-10-21 22:07:51,15.69916171,0.0003276,69.9971,9.4306,279.4316,80.6509,1.6608e-05,1.784e-05,0.0,0 STARLINK-6274,1 56776U 23078K   23294.92211904  .00001784  00000-0  16608-4 0  9994,2 56776  69.9971   9.4306 0003276 279.4316  80.6509 15.69916171 22598,6737.274,91.725,361.346,356.932,0.0
56776.0,STARLINK-6274,PAYLOAD,2023-10-22 08:50:08,15.69899266,0.0003247,69.997,8.1769,276.6111,83.4715,-3.8488e-06,-6.75e-06,0.0,0 STARLINK-6274,1 56776U 23078K   23295.36815519 -.00000675  00000-0 -38488-5 0  9996,2 56776  69.9970   8.1769 0003247 276.6111  83.4715 15.69899266 22928,6737.322,91.726,361.375,357.0,0.0
56776.0,STARLINK-6274,PAYLOAD,2023-10-22 13:25:23,15.69907734,0.000239,69.9979,7.6394,257.467,102.6258,1.0966e-05,1.105e-05,0.0,0 STARLINK-6274,1 56776U 23078K   23295.55929830  .00001105  00000-0  10966-4 0  9996,2 56776  69.9979   7.6394 0002390 257.4670 102.6258 15.69907734 22690,6737.298,91.725,360.773,357.553,0.0
56776.0,STARLINK-6274,PAYLOAD,2023-10-22 14:57:08,15.69907402,0.0002203,69.9993,7.4616,254.3886,105.7066,1.5159e-05,1.61e-05,0.0,0 STARLINK-6274,1 56776U 23078K   23295.62301548  .00001610  00000-0  15159-4 0  9994,2 56776  69.9993   7.4616 0002203 254.3886 105.7066 15.69907402 22962,6737.299,91.725,360.648,357.68,0.0
